{
  "norad_id": 49760,
  "name": "STARLINK-3199",
  "history": [
    {
      "epoch": "2026-03-28T21:52:27.201216Z",
      "apogee_km": 540.693428077765,
      "perigee_km": 538.8038767906592,
      "latitude_deg": -1.6432399771834595e-05,
      "longitude_deg": -101.60722894770511,
      "height_km": 540.7157299808404,
      "semi_major_axis_km": 6917.885652434212,
      "eccentricity": 0.00013657,
      "inclination_deg": 53.2177,
      "raan_deg": 52.8312,
      "arg_perigee_deg": 94.3306,
      "mean_anomaly_deg": 265.7842,
      "mean_motion_rev_day": 15.08838278
    },
    {
      "epoch": "2026-03-29T02:38:36.759552Z",
      "apogee_km": 540.7100763345134,
      "perigee_km": 538.7965878686546,
      "latitude_deg": 2.5163935135624656e-05,
      "longitude_deg": -174.23549348374885,
      "height_km": 540.7539989727975,
      "semi_major_axis_km": 6917.890332101584,
      "eccentricity": 0.0001383,
      "inclination_deg": 53.2179,
      "raan_deg": 51.9386,
      "arg_perigee_deg": 96.2968,
      "mean_anomaly_deg": 263.8182,
      "mean_motion_rev_day": 15.08836747
    },
    {
      "epoch": "2026-03-30T04:04:47.045280Z",
      "apogee_km": 540.7236572939228,
      "perigee_km": 538.7700468940911,
      "latitude_deg": 2.192054541753331e-05,
      "longitude_deg": 158.4200203292155,
      "height_km": 540.6951330938648,
      "semi_major_axis_km": 6917.883852094006,
      "eccentricity": 0.0001412,
      "inclination_deg": 53.2185,
      "raan_deg": 47.1816,
      "arg_perigee_deg": 93.0828,
      "mean_anomaly_deg": 267.0326,
      "mean_motion_rev_day": 15.08838867
    },
    {
      "epoch": "2026-03-30T13:37:05.666880Z",
      "apogee_km": 540.7268403376775,
      "perigee_km": 538.7505416102795,
      "latitude_deg": 2.1240194924931732e-05,
      "longitude_deg": 13.166497760562947,
      "height_km": 540.6706855215956,
      "semi_major_axis_km": 6917.875690973978,
      "eccentricity": 0.00014284,
      "inclination_deg": 53.2191,
      "raan_deg": 45.3974,
      "arg_perigee_deg": 92.0997,
      "mean_anomaly_deg": 268.0159,
      "mean_motion_rev_day": 15.08841537
    },
    {
      "epoch": "2026-03-30T19:58:38.514144Z",
      "apogee_km": 540.8482259675347,
      "perigee_km": 538.6613420167796,
      "latitude_deg": 5.23191110591129e-05,
      "longitude_deg": -83.66990238000794,
      "height_km": 540.7627837650014,
      "semi_major_axis_km": 6917.891783992157,
      "eccentricity": 0.00015806,
      "inclination_deg": 53.2195,
      "raan_deg": 44.209,
      "arg_perigee_deg": 95.899,
      "mean_anomaly_deg": 264.2183,
      "mean_motion_rev_day": 15.08836272
    },
    {
      "epoch": "2026-03-31T13:27:52.977312Z",
      "apogee_km": 540.7765394326834,
      "perigee_km": 538.7122436254513,
      "latitude_deg": 3.803790591076497e-05,
      "longitude_deg": 10.030944802219377,
      "height_km": 540.7285601941963,
      "semi_major_axis_km": 6917.881391529067,
      "eccentricity": 0.0001492,
      "inclination_deg": 53.2198,
      "raan_deg": 40.9383,
      "arg_perigee_deg": 94.9127,
      "mean_anomaly_deg": 265.2036,
      "mean_motion_rev_day": 15.08839672
    },
    {
      "epoch": "2026-04-01T13:18:40.743072Z",
      "apogee_km": 540.8773935798563,
      "perigee_km": 538.712080946093,
      "latitude_deg": -2.337378370459018e-05,
      "longitude_deg": 6.892631317629275,
      "height_km": 540.8176802642463,
      "semi_major_axis_km": 6917.931737262975,
      "eccentricity": 0.0001565,
      "inclination_deg": 53.2204,
      "raan_deg": 36.4784,
      "arg_perigee_deg": 96.7469,
      "mean_anomaly_deg": 263.3701,
      "mean_motion_rev_day": 15.08823201
    },
    {
      "epoch": "2026-04-02T13:09:27.041760Z",
      "apogee_km": 540.741033101559,
      "perigee_km": 538.7399678557704,
      "latitude_deg": -1.0521613267264365e-05,
      "longitude_deg": 3.7589022120228788,
      "height_km": 540.4925734986216,
      "semi_major_axis_km": 6917.877500478664,
      "eccentricity": 0.00014463,
      "inclination_deg": 53.219,
      "raan_deg": 32.0169,
      "arg_perigee_deg": 81.7419,
      "mean_anomaly_deg": 278.3737,
      "mean_motion_rev_day": 15.08840945
    },
    {
      "epoch": "2026-04-03T19:21:47.940768Z",
      "apogee_km": 540.9128506456354,
      "perigee_km": 538.6603747173458,
      "latitude_deg": 2.7788285219010152e-05,
      "longitude_deg": -96.21845659400037,
      "height_km": 540.709243219946,
      "semi_major_axis_km": 6917.92361268149,
      "eccentricity": 0.0001628,
      "inclination_deg": 53.2191,
      "raan_deg": 26.3671,
      "arg_perigee_deg": 91.3803,
      "mean_anomaly_deg": 268.7376,
      "mean_motion_rev_day": 15.08825859
    },
    {
      "epoch": "2026-04-04T04:54:08.708544Z",
      "apogee_km": 540.8465146453527,
      "perigee_km": 538.8472173080863,
      "latitude_deg": 6.696119252195714e-05,
      "longitude_deg": 118.51918291620456,
      "height_km": 540.6624347727679,
      "semi_major_axis_km": 6917.983865976719,
      "eccentricity": 0.0001445,
      "inclination_deg": 53.2191,
      "raan_deg": 24.583,
      "arg_perigee_deg": 85.3992,
      "mean_anomaly_deg": 274.7166,
      "mean_motion_rev_day": 15.08806147
    },
    {
      "epoch": "2026-04-05T04:44:50.987904Z",
      "apogee_km": 540.6507239399671,
      "perigee_km": 538.6639334087722,
      "latitude_deg": -1.2129052568988966e-06,
      "longitude_deg": 115.4020845800913,
      "height_km": 540.646311087214,
      "semi_major_axis_km": 6917.794328674369,
      "eccentricity": 0.0001436,
      "inclination_deg": 53.2189,
      "raan_deg": 20.1214,
      "arg_perigee_deg": 95.3836,
      "mean_anomaly_deg": 264.732,
      "mean_motion_rev_day": 15.08868156
    },
    {
      "epoch": "2026-04-05T23:49:30.253728Z",
      "apogee_km": 540.5370459640262,
      "perigee_km": 538.9850847120479,
      "latitude_deg": -3.444193749406683e-05,
      "longitude_deg": -175.11103726663677,
      "height_km": 540.7665796658137,
      "semi_major_axis_km": 6917.898065338037,
      "eccentricity": 0.00011217,
      "inclination_deg": 53.2186,
      "raan_deg": 16.5554,
      "arg_perigee_deg": 98.1001,
      "mean_anomaly_deg": 262.0118,
      "mean_motion_rev_day": 15.08834217
    },
    {
      "epoch": "2026-04-07T10:47:58.810272Z",
      "apogee_km": 540.3929881110353,
      "perigee_km": 538.8651302991984,
      "latitude_deg": 1.7855283193119638e-05,
      "longitude_deg": 12.292956457542084,
      "height_km": 540.8373520993637,
      "semi_major_axis_km": 6917.766059205116,
      "eccentricity": 0.00011043,
      "inclination_deg": 53.2198,
      "raan_deg": 10.0147,
      "arg_perigee_deg": 114.0926,
      "mean_anomaly_deg": 246.0182,
      "mean_motion_rev_day": 15.08877405
    },
    {
      "epoch": "2026-04-07T17:09:32.323680Z",
      "apogee_km": 540.5045410314888,
      "perigee_km": 538.993674705529,
      "latitude_deg": 2.8205827613581333e-05,
      "longitude_deg": -84.54744337616637,
      "height_km": 540.7687200693439,
      "semi_major_axis_km": 6917.886107868509,
      "eccentricity": 0.0001092,
      "inclination_deg": 53.2198,
      "raan_deg": 8.8251,
      "arg_perigee_deg": 99.3915,
      "mean_anomaly_deg": 260.7201,
      "mean_motion_rev_day": 15.08838129
    },
    {
      "epoch": "2026-04-08T04:17:14.510688Z",
      "apogee_km": 540.5863459312341,
      "perigee_km": 538.9555183153161,
      "latitude_deg": -1.4664737318335822e-05,
      "longitude_deg": 105.98701762049056,
      "height_km": 540.6911277729612,
      "semi_major_axis_km": 6917.907932123275,
      "eccentricity": 0.00011787,
      "inclination_deg": 53.2203,
      "raan_deg": 6.7424,
      "arg_perigee_deg": 91.6819,
      "mean_anomaly_deg": 268.4308,
      "mean_motion_rev_day": 15.08830989
    },
    {
      "epoch": "2026-04-09T10:29:33.032832Z",
      "apogee_km": 540.646087946453,
      "perigee_km": 538.7808970966589,
      "latitude_deg": -1.912475872421328e-05,
      "longitude_deg": 6.020053668438234,
      "height_km": 540.41598242561,
      "semi_major_axis_km": 6917.850492521556,
      "eccentricity": 0.00013481,
      "inclination_deg": 53.2201,
      "raan_deg": 1.0931,
      "arg_perigee_deg": 78.0205,
      "mean_anomaly_deg": 282.0938,
      "mean_motion_rev_day": 15.08849781
    },
    {
      "epoch": "2026-04-10T10:20:21.668640Z",
      "apogee_km": 540.5142593619312,
      "perigee_km": 539.0075411992502,
      "latitude_deg": 1.196828090538801e-05,
      "longitude_deg": 2.8772698664184264,
      "height_km": 540.5590123590594,
      "semi_major_axis_km": 6917.89790028059,
      "eccentricity": 0.0001089,
      "inclination_deg": 53.219,
      "raan_deg": 356.6323,
      "arg_perigee_deg": 82.5144,
      "mean_anomaly_deg": 277.5972,
      "mean_motion_rev_day": 15.08834271
    },
    {
      "epoch": "2026-04-11T10:11:08.236896Z",
      "apogee_km": 540.4805942120174,
      "perigee_km": 538.9863341917508,
      "latitude_deg": 6.942597298658974e-07,
      "longitude_deg": -0.25660640110351524,
      "height_km": 540.4998789249788,
      "semi_major_axis_km": 6917.870464201884,
      "eccentricity": 0.000108,
      "inclination_deg": 53.2186,
      "raan_deg": 352.1718,
      "arg_perigee_deg": 79.993,
      "mean_anomaly_deg": 280.1184,
      "mean_motion_rev_day": 15.08843247
    },
    {
      "epoch": "2026-04-12T22:45:00.783072Z",
      "apogee_km": 540.6043444839916,
      "perigee_km": 538.8997766194725,
      "latitude_deg": -5.044259421675905e-05,
      "longitude_deg": 162.9328571945842,
      "height_km": 540.4836198091449,
      "semi_major_axis_km": 6917.889060551732,
      "eccentricity": 0.0001232,
      "inclination_deg": 53.2186,
      "raan_deg": 345.3319,
      "arg_perigee_deg": 78.872,
      "mean_anomaly_deg": 281.241,
      "mean_motion_rev_day": 15.08837163
    }
  ]
}